[{"OBJECT_NAME":"SWAS","OBJECT_ID":"1998-071A","EPOCH":"2026-03-09T12:50:12.826752","MEAN_MOTION":15.08888192,"ECCENTRICITY":0.00040991,"INCLINATION":69.8952,"RA_OF_ASC_NODE":124.3662,"ARG_OF_PERICENTER":14.3215,"MEAN_ANOMALY":345.8065,"EPHEMERIS_TYPE":0,"CLASSIFICATION_TYPE":"U","NORAD_CAT_ID":25560,"ELEMENT_SET_NO":999,"REV_AT_EPOCH":48223,"BSTAR":0.00029986322,"MEAN_MOTION_DOT":4.636e-5,"MEAN_MOTION_DDOT":0},{"OBJECT_NAME":"STARLINK-4019","OBJECT_ID":"2022-052A","EPOCH":"2026-03-09T21:25:30.172512","MEAN_MOTION":15.08834523,"ECCENTRICITY":0.00012165,"INCLINATION":53.217,"RA_OF_ASC_NODE":283.208,"ARG_OF_PERICENTER":93.225,"MEAN_ANOMALY":266.8881,"EPHEMERIS_TYPE":0,"CLASSIFICATION_TYPE":"U","NORAD_CAT_ID":52598,"ELEMENT_SET_NO":999,"REV_AT_EPOCH":21161,"BSTAR":1.373332e-5,"MEAN_MOTION_DOT":-6.9e-7,"MEAN_MOTION_DDOT":0}]
